{"type": "Feature", "properties": {"name": "Hurricane Isaias (AL092026) cone, advisory 10", "advisory": "1000 PM CDT Thu Oct 08 2026", "source": "NHC AL092026_CONE_latest.kmz"}, "geometry": {"type": "Polygon", "coordinates": [[[-88.40507, 25.13357], [-88.38483, 25.13505], [-88.36365, 25.13908], [-88.34126, 25.14512], [-88.30627, 25.15734], [-88.29474, 25.1619], [-88.27129, 25.1717], [-88.24863, 25.18258], [-88.217, 25.20124], [-88.19769, 25.21548], [-88.18, 25.23133], [-88.16391, 25.24878], [-88.1489, 25.26731], [-88.13468, 25.28665], [-88.12101, 25.30652], [-88.1076, 25.32667], [-88.09447, 25.34708], [-88.0753, 25.37823], [-88.069, 25.3887], [-88.05667, 25.40992], [-88.0446, 25.4314], [-88.03227, 25.45262], [-88.01324, 25.48391], [-88.00681, 25.49425], [-87.99367, 25.51466], [-87.98026, 25.5348], [-87.96686, 25.55494], [-87.95345, 25.57508], [-87.93333, 25.6053], [-87.92664, 25.61537], [-87.91322, 25.63551], [-87.89955, 25.65538], [-87.88561, 25.67499], [-87.87141, 25.69432], [-87.84956, 25.72279], [-87.84219, 25.73219], [-87.82771, 25.75126], [-87.81349, 25.77059], [-87.79955, 25.7902], [-87.78588, 25.81007], [-87.77248, 25.83022], [-87.75907, 25.85036], [-87.74567, 25.8705], [-87.73227, 25.89064], [-87.71886, 25.91078], [-87.70546, 25.93092], [-87.69205, 25.95107], [-87.67864, 25.97121], [-87.66524, 25.99135], [-87.65183, 26.01149], [-87.63173, 26.04171], [-87.62503, 26.05178], [-87.61162, 26.07192], [-87.59822, 26.09206], [-87.58481, 26.1122], [-87.5714, 26.13235], [-87.55183, 26.1631], [-87.53909, 26.18391], [-87.53279, 26.19439], [-87.52046, 26.2156], [-87.50224, 26.2477], [-87.49607, 26.2583], [-87.47704, 26.28959], [-87.4706, 26.29993], [-87.45773, 26.32061], [-87.44485, 26.34129], [-87.42622, 26.37298], [-87.41443, 26.39473], [-87.40866, 26.40574], [-87.39714, 26.42776], [-87.38588, 26.45005], [-87.37488, 26.47261], [-87.36362, 26.4949], [-87.34686, 26.52847], [-87.33574, 26.5509], [-87.33011, 26.56204], [-87.31886, 26.58433], [-87.30276, 26.61857], [-87.2974, 26.62999], [-87.28212, 26.66503], [-87.2773, 26.67698], [-87.26309, 26.71311], [-87.25827, 26.72506], [-87.24888, 26.74923], [-87.23923, 26.77313], [-87.22877, 26.79623], [-87.21804, 26.81906], [-87.20222, 26.85357], [-87.19685, 26.86498], [-87.18158, 26.90002], [-87.17675, 26.91198], [-87.16254, 26.9481], [-87.15771, 26.96005], [-87.14833, 26.98422], [-87.13399, 27.02021], [-87.12408, 27.04384], [-87.11443, 27.06774], [-87.10973, 27.07983], [-87.09605, 27.11649], [-87.0915, 27.1287], [-87.07877, 27.1663], [-87.07462, 27.17892], [-87.06603, 27.2039], [-87.05236, 27.24056], [-87.04781, 27.25278], [-87.03346, 27.28877], [-87.02353, 27.3124], [-87.01858, 27.32421], [-87.00919, 27.34838], [-87.00008, 27.37282], [-86.98667, 27.40975], [-86.97823, 27.43487], [-86.96991, 27.46011], [-86.96146, 27.48522], [-86.95302, 27.51033], [-86.94472, 27.53558], [-86.94056, 27.5482], [-86.92796, 27.58593], [-86.91951, 27.61104], [-86.91119, 27.63628], [-86.90289, 27.66153], [-86.89445, 27.68664], [-86.886, 27.71175], [-86.88185, 27.72437], [-86.86937, 27.76224], [-86.86107, 27.78748], [-86.85303, 27.813], [-86.84914, 27.82589], [-86.83801, 27.8651], [-86.83091, 27.89155], [-86.82394, 27.91814], [-86.81683, 27.94459], [-86.81322, 27.95775], [-86.80182, 27.99669], [-86.79377, 28.02221], [-86.78546, 28.04745], [-86.77715, 28.07269], [-86.76884, 28.09794], [-86.76053, 28.12318], [-86.75249, 28.1487], [-86.74485, 28.17462], [-86.73747, 28.2008], [-86.73037, 28.22725], [-86.7234, 28.25384], [-86.71629, 28.28029], [-86.70892, 28.30648], [-86.70128, 28.33239], [-86.69337, 28.35804], [-86.68546, 28.38369], [-86.68157, 28.39658], [-86.67406, 28.42263], [-86.66335, 28.46224], [-86.65651, 28.48896], [-86.6498, 28.51582], [-86.6431, 28.54268], [-86.6364, 28.56953], [-86.6297, 28.59639], [-86.623, 28.62324], [-86.61629, 28.6501], [-86.60959, 28.67696], [-86.60289, 28.70381], [-86.59618, 28.73067], [-86.58948, 28.75752], [-86.58278, 28.78438], [-86.57607, 28.81123], [-86.56937, 28.83809], [-86.56267, 28.86495], [-86.55596, 28.89181], [-86.54926, 28.91866], [-86.54256, 28.94552], [-86.53586, 28.97237], [-86.53251, 28.9858], [-86.52245, 29.02609], [-86.51575, 29.05294], [-86.50905, 29.0798], [-86.50235, 29.10666], [-86.499, 29.12008], [-86.48894, 29.16037], [-86.48238, 29.18736], [-86.47607, 29.21461], [-86.47004, 29.24214], [-86.46428, 29.26994], [-86.45878, 29.298], [-86.45328, 29.32607], [-86.44765, 29.354], [-86.44202, 29.38193], [-86.4364, 29.40986], [-86.43076, 29.43779], [-86.42526, 29.46585], [-86.41977, 29.49392], [-86.41414, 29.52184], [-86.40851, 29.54978], [-86.40288, 29.57771], [-86.39725, 29.60564], [-86.39175, 29.6337], [-86.38626, 29.66177], [-86.38063, 29.6897], [-86.37514, 29.71776], [-86.37004, 29.74623], [-86.36549, 29.77523], [-86.3616, 29.80491], [-86.35824, 29.83512], [-86.35489, 29.86534], [-86.351, 29.89501], [-86.34644, 29.92402], [-86.34149, 29.95262], [-86.33894, 29.96685], [-86.33211, 30.01036], [-86.32875, 30.04057], [-86.32661, 30.07199], [-86.3254, 30.10435], [-86.32472, 30.13725], [-86.32406, 30.17015], [-86.32285, 30.20251], [-86.32069, 30.23393], [-86.31735, 30.26414], [-86.31293, 30.29329], [-86.31052, 30.30766], [-86.30302, 30.35049], [-86.2986, 30.37963], [-86.29524, 30.40984], [-86.29309, 30.44127], [-86.29189, 30.47363], [-86.29135, 30.50666], [-86.29121, 30.5401], [-86.29121, 30.57367], [-86.29121, 30.60723], [-86.29121, 30.6408], [-86.29121, 30.67437], [-86.29121, 30.70795], [-86.29121, 30.74152], [-86.29121, 30.77509], [-86.29121, 30.80865], [-86.29121, 30.84222], [-86.29121, 30.87579], [-86.29121, 30.90936], [-86.29121, 30.94293], [-86.29121, 30.97651], [-86.29121, 31.01007], [-86.29121, 31.04365], [-86.29121, 31.07722], [-86.29135, 31.11065], [-86.29189, 31.14368], [-86.29309, 31.17605], [-86.29523, 31.20747], [-86.29859, 31.23768], [-86.30302, 31.26682], [-86.30797, 31.29542], [-86.31293, 31.32402], [-86.31735, 31.35316], [-86.32071, 31.38337], [-86.32286, 31.41479], [-86.32407, 31.44715], [-86.32459, 31.48019], [-86.32472, 31.51362], [-86.32472, 31.5472], [-86.32472, 31.58076], [-86.32472, 31.61433], [-86.32472, 31.6479], [-86.32472, 31.68148], [-86.32472, 31.71505], [-86.32472, 31.74862], [-86.32472, 31.78219], [-86.32472, 31.81576], [-86.32472, 31.84933], [-86.32472, 31.8829], [-86.32472, 31.91647], [-86.32472, 31.95004], [-86.32472, 31.98361], [-86.32472, 32.01718], [-86.32472, 32.05075], [-86.32472, 32.08432], [-86.32472, 32.11789], [-86.32472, 32.15146], [-86.32472, 32.18503], [-86.32472, 32.2186], [-86.32472, 32.25217], [-86.32472, 32.28574], [-86.32472, 32.31931], [-86.32486, 32.35274], [-86.32539, 32.38577], [-86.3266, 32.41813], [-86.32875, 32.44956], [-86.3321, 32.47977], [-86.33653, 32.50891], [-86.34149, 32.53751], [-86.34644, 32.56612], [-86.35087, 32.59525], [-86.35423, 32.62547], [-86.35637, 32.65689], [-86.35757, 32.68925], [-86.35811, 32.72228], [-86.35838, 32.75558], [-86.35892, 32.78862], [-86.36012, 32.82098], [-86.36226, 32.8524], [-86.36562, 32.88261], [-86.37004, 32.91175], [-86.375, 32.94035], [-86.37996, 32.96896], [-86.38438, 32.99809], [-86.38773, 33.02831], [-86.38988, 33.05973], [-86.39108, 33.09209], [-86.39162, 33.12512], [-86.39175, 33.15856], [-86.39175, 33.19213], [-86.39175, 33.2257], [-86.39175, 33.25927], [-86.39175, 33.29284], [-86.39175, 33.32641], [-86.39175, 33.35998], [-86.39175, 33.39355], [-86.39175, 33.42712], [-86.39162, 33.46056], [-86.39108, 33.49359], [-86.38988, 33.52595], [-86.3876, 33.55724], [-86.38371, 33.58691], [-86.38129, 33.60128], [-86.37084, 33.64116], [-86.36198, 33.66587], [-86.35194, 33.68937], [-86.34135, 33.71233], [-86.33598, 33.72374], [-86.32472, 33.74603], [-86.31346, 33.76832], [-86.30247, 33.79088], [-86.29121, 33.81317], [-86.27446, 33.84675], [-86.26334, 33.86917], [-86.25194, 33.89133], [-86.24041, 33.91335], [-86.22861, 33.9351], [-86.21628, 33.95631], [-86.20354, 33.97713], [-86.19054, 33.99767], [-86.18398, 34.00788], [-86.16374, 34.03796], [-86.14993, 34.05769], [-86.14296, 34.0675], [-86.12875, 34.08683], [-86.1069, 34.1153], [-86.09229, 34.13424], [-86.07793, 34.15344], [-86.06373, 34.17278], [-86.05663, 34.18245], [-86.04241, 34.20178], [-86.02821, 34.22112], [-86.01373, 34.24019], [-85.99174, 34.26852], [-85.98451, 34.27805], [-85.97029, 34.29739], [-85.94898, 34.32639], [-85.94188, 34.33606], [-85.91989, 34.3644], [-85.91238, 34.37366], [-85.88853, 34.40011], [-85.87218, 34.4173], [-85.86386, 34.42576], [-85.83879, 34.451], [-85.82204, 34.46779], [-85.81372, 34.47625], [-85.78851, 34.50136], [-85.7802, 34.50982], [-85.755, 34.53493], [-85.73825, 34.55171], [-85.7215, 34.5685], [-85.70474, 34.58529], [-85.6963, 34.59362], [-85.67967, 34.61053], [-85.66278, 34.62719], [-85.64616, 34.6441], [-85.62927, 34.66076], [-85.61266, 34.67767], [-85.59576, 34.69432], [-85.57913, 34.71124], [-85.55394, 34.73635], [-85.54562, 34.74481], [-85.52042, 34.76992], [-85.51211, 34.77838], [-85.48677, 34.80336], [-85.47832, 34.81168], [-85.46091, 34.8278], [-85.44321, 34.84364], [-85.42471, 34.85868], [-85.40568, 34.87318], [-85.38637, 34.88742], [-85.36707, 34.90165], [-85.34804, 34.91615], [-85.32953, 34.93119], [-85.31157, 34.94677], [-85.29359, 34.96235], [-85.27564, 34.97792], [-85.25714, 34.99296], [-85.23811, 35.00747], [-85.2188, 35.0217], [-85.19951, 35.03593], [-85.1802, 35.05016], [-85.16116, 35.06467], [-85.1424, 35.07944], [-85.12336, 35.09394], [-85.11371, 35.10106], [-85.08449, 35.12214], [-85.06465, 35.13583], [-85.04454, 35.14926], [-85.03435, 35.15584], [-85.00352, 35.17531], [-84.98261, 35.18793], [-84.96143, 35.20029], [-84.93999, 35.21237], [-84.9294, 35.21855], [-84.89789, 35.23735], [-84.88757, 35.2438], [-84.8566, 35.26313], [-84.83595, 35.27602], [-84.81505, 35.28865], [-84.80432, 35.29469], [-84.77162, 35.31228], [-84.76062, 35.31805], [-84.72765, 35.33538], [-84.71665, 35.34115], [-84.69493, 35.35297], [-84.67375, 35.36532], [-84.64265, 35.38452], [-84.62201, 35.39741], [-84.60136, 35.4103], [-84.59091, 35.41661], [-84.55901, 35.43501], [-84.53703, 35.44656], [-84.52603, 35.45233], [-84.49278, 35.46938], [-84.48152, 35.47489], [-84.45914, 35.48604], [-84.43689, 35.49731], [-84.41451, 35.50846], [-84.39212, 35.51961], [-84.36986, 35.53088], [-84.34747, 35.54203], [-84.31396, 35.55882], [-84.2917, 35.5701], [-84.28044, 35.5756], [-84.24693, 35.59239], [-84.23581, 35.59803], [-84.20216, 35.61468], [-84.19104, 35.62032], [-84.15765, 35.63724], [-84.14639, 35.64275], [-84.12401, 35.65389], [-84.09064, 35.67081], [-84.07925, 35.67618], [-84.05646, 35.68692], [-84.022, 35.70277], [-84.01007, 35.7076], [-83.97401, 35.72184], [-83.96208, 35.72667], [-83.93808, 35.7362], [-83.91409, 35.74574], [-83.89062, 35.75581], [-83.86771, 35.76641], [-83.84492, 35.77716], [-83.81126, 35.79381], [-83.78902, 35.80509], [-83.77776, 35.81059], [-83.75537, 35.82174], [-83.73312, 35.83302], [-83.69947, 35.84967], [-83.68835, 35.85531], [-83.65497, 35.87223], [-83.64358, 35.8776], [-83.62079, 35.88834], [-83.58633, 35.90418], [-83.5744, 35.90902], [-83.55041, 35.91855], [-83.52641, 35.92809], [-83.50242, 35.93762], [-83.47842, 35.94715], [-83.44344, 35.96246], [-83.43204, 35.96783], [-83.39786, 35.98395], [-83.3756, 35.99523], [-83.35335, 36.00651], [-83.34209, 36.01202], [-83.3197, 36.02316], [-83.29745, 36.03444], [-83.27493, 36.04545], [-83.25214, 36.05619], [-83.22922, 36.0668], [-83.20576, 36.07687], [-83.18177, 36.08641], [-83.15778, 36.09594], [-83.13378, 36.10548], [-83.09785, 36.11984], [-83.08633, 36.12508], [-83.052, 36.14106], [-83.04061, 36.14643], [-83.0181, 36.15744], [-82.99584, 36.16872], [-82.97345, 36.17986], [-82.93993, 36.19665], [-82.91768, 36.20793], [-82.90629, 36.2133], [-82.8835, 36.22404], [-82.86058, 36.23465], [-82.8252, 36.24955], [-82.80107, 36.25895], [-82.78914, 36.26379], [-82.75307, 36.27802], [-82.74114, 36.28286], [-82.71768, 36.29293], [-82.69476, 36.30354], [-82.66058, 36.31965], [-82.64945, 36.32529], [-82.61607, 36.34221], [-82.60481, 36.34772], [-82.5713, 36.3645], [-82.56017, 36.37014], [-82.53765, 36.38115], [-82.51486, 36.3919], [-82.49194, 36.4025], [-82.45656, 36.41741], [-82.44449, 36.42211], [-82.4205, 36.43164], [-82.3965, 36.44117], [-82.37251, 36.45071], [-82.34904, 36.46078], [-82.32612, 36.47139], [-82.30333, 36.48213], [-82.26968, 36.49878], [-82.24744, 36.51006], [-82.22491, 36.52107], [-82.21379, 36.52671], [-82.1804, 36.54363], [-82.16914, 36.54913], [-82.14676, 36.56028], [-82.11339, 36.5772], [-82.10213, 36.5827], [-82.07973, 36.59385], [-82.05748, 36.60513], [-82.0351, 36.61627], [-82.00158, 36.63306], [-81.99045, 36.63869], [-81.96806, 36.64984], [-81.93456, 36.66663], [-81.91231, 36.67791], [-81.88979, 36.68892], [-81.86754, 36.7002], [-81.84555, 36.71175], [-81.83455, 36.71752], [-81.81284, 36.72934], [-81.79166, 36.74169], [-81.76057, 36.76089], [-81.74019, 36.77406], [-81.72008, 36.78748], [-81.70024, 36.80118], [-81.69046, 36.80816], [-81.66136, 36.82938], [-81.64233, 36.84388], [-81.62356, 36.85865], [-81.60452, 36.87315], [-81.58522, 36.88738], [-81.56592, 36.90162], [-81.54662, 36.91585], [-81.52757, 36.93035], [-81.50908, 36.94539], [-81.49138, 36.96124], [-81.47395, 36.97735], [-81.44862, 37.00233], [-81.44018, 37.01066], [-81.42355, 37.02758], [-81.40694, 37.04449], [-81.39085, 37.06195], [-81.37503, 37.07967], [-81.36002, 37.09821], [-81.34554, 37.11728], [-81.33133, 37.13661], [-81.31001, 37.16562], [-81.30291, 37.17529], [-81.28844, 37.19435], [-81.2737, 37.21315], [-81.25211, 37.24188], [-81.245, 37.25155], [-81.22422, 37.28109], [-81.21738, 37.29103], [-81.19742, 37.32138], [-81.1844, 37.34192], [-81.17796, 37.35226], [-81.15934, 37.38395], [-81.14767, 37.40584], [-81.13655, 37.42827], [-81.12582, 37.4511], [-81.11578, 37.4746], [-81.10639, 37.49877], [-81.09727, 37.5232], [-81.08842, 37.54791], [-81.07999, 37.57302], [-81.07167, 37.59827], [-81.06335, 37.62351], [-81.05531, 37.64902], [-81.04768, 37.67494], [-81.04031, 37.70113], [-81.0332, 37.72758], [-81.02636, 37.7543], [-81.01979, 37.78129], [-81.01363, 37.80869], [-81.00813, 37.83675], [-81.00357, 37.86575], [-81.00022, 37.89597], [-80.99808, 37.92739], [-80.99687, 37.95975], [-80.99634, 37.99278], [-80.9962, 38.02621], [-80.99634, 38.05965], [-80.99687, 38.09268], [-80.99808, 38.12504], [-81.00023, 38.15647], [-81.00357, 38.18668], [-81.00813, 38.21569], [-81.01363, 38.24375], [-81.01979, 38.27114], [-81.02636, 38.29813], [-81.0332, 38.32485], [-81.0403, 38.3513], [-81.04768, 38.37749], [-81.05545, 38.40327], [-81.0639, 38.42839], [-81.07288, 38.45296], [-81.08226, 38.47713], [-81.09232, 38.50063], [-81.10291, 38.52359], [-81.11362, 38.54642], [-81.12462, 38.56898], [-81.13588, 38.59127], [-81.147, 38.61369], [-81.15813, 38.63612], [-81.16953, 38.65827], [-81.18106, 38.6803], [-81.19299, 38.70191], [-81.20572, 38.72272], [-81.21255, 38.73266], [-81.23308, 38.76247], [-81.24754, 38.78154], [-81.26216, 38.80047], [-81.2765, 38.81968], [-81.29071, 38.83901], [-81.31203, 38.86802], [-81.31927, 38.87756], [-81.33401, 38.89635], [-81.34943, 38.91448], [-81.36537, 38.93208], [-81.38173, 38.94926], [-81.39835, 38.96618], [-81.41512, 38.98296], [-81.432, 38.99962], [-81.44916, 39.016], [-81.46672, 39.03197], [-81.49406, 39.05494], [-81.50359, 39.06219], [-81.52276, 39.07655], [-81.54205, 39.09079], [-81.56136, 39.10503], [-81.58052, 39.11939], [-81.59943, 39.13403], [-81.61833, 39.14867], [-81.6375, 39.16303], [-81.66673, 39.18412], [-81.67665, 39.19096], [-81.70667, 39.21124], [-81.71686, 39.21782], [-81.73737, 39.23085], [-81.7686, 39.24992], [-81.80051, 39.26831], [-81.81123, 39.27435], [-81.83241, 39.28671], [-81.843, 39.29288], [-81.86418, 39.30524], [-81.90721, 39.32927], [-81.9182, 39.33504], [-81.94099, 39.34579], [-81.96404, 39.35626], [-81.98764, 39.3662], [-82.01151, 39.37587], [-82.0351, 39.3858], [-82.07076, 39.40044], [-82.08282, 39.40514], [-82.11942, 39.41883], [-82.13161, 39.4234], [-82.16914, 39.43616], [-82.18175, 39.44032], [-82.21941, 39.45294], [-82.23187, 39.45724], [-82.26968, 39.46973], [-82.28229, 39.47389], [-82.32008, 39.48638], [-82.33269, 39.49054], [-82.37196, 39.50155], [-82.39877, 39.50826], [-82.41232, 39.51149], [-82.45401, 39.52008], [-82.46809, 39.52277], [-82.5099, 39.53123], [-82.52385, 39.53405], [-82.56634, 39.54184], [-82.59531, 39.5464], [-82.62492, 39.5503], [-82.63994, 39.55204], [-82.67023, 39.55527], [-82.71487, 39.56091], [-82.74382, 39.56547], [-82.77237, 39.57044], [-82.78658, 39.57299], [-82.83002, 39.57984], [-82.86018, 39.5832], [-82.89155, 39.58534], [-82.92385, 39.58655], [-82.95683, 39.58709], [-82.99021, 39.58723], [-83.02372, 39.58723], [-83.0571, 39.58709], [-83.09007, 39.58655], [-83.12238, 39.58534], [-83.15375, 39.5832], [-83.18391, 39.57984], [-83.213, 39.57541], [-83.24155, 39.57044], [-83.2701, 39.56547], [-83.29907, 39.56091], [-83.32869, 39.55701], [-83.35885, 39.55365], [-83.38901, 39.55029], [-83.41864, 39.5464], [-83.44746, 39.5417], [-83.47547, 39.53619], [-83.50282, 39.53002], [-83.52977, 39.52344], [-83.55658, 39.51673], [-83.58339, 39.51001], [-83.6102, 39.5033], [-83.63701, 39.49658], [-83.66381, 39.48987], [-83.69049, 39.48302], [-83.7169, 39.47591], [-83.74304, 39.46852], [-83.76891, 39.46087], [-83.79438, 39.45281], [-83.83218, 39.44032], [-83.84479, 39.43616], [-83.86986, 39.4277], [-83.89452, 39.41883], [-83.91891, 39.40971], [-83.94304, 39.40031], [-83.96651, 39.39024], [-83.98943, 39.37963], [-84.02361, 39.36351], [-84.03474, 39.35787], [-84.06812, 39.34095], [-84.07938, 39.33545], [-84.10176, 39.3243], [-84.13487, 39.30712], [-84.14586, 39.30135], [-84.1783, 39.28349], [-84.19922, 39.27086], [-84.20953, 39.26442], [-84.25029, 39.2381], [-84.26035, 39.23138], [-84.28046, 39.21796], [-84.2905, 39.21124], [-84.31062, 39.19781], [-84.33072, 39.18438], [-84.3708, 39.15739], [-84.38072, 39.15055], [-84.40028, 39.13658], [-84.42911, 39.11509], [-84.43863, 39.10784], [-84.4574, 39.09307], [-84.47643, 39.07857], [-84.50552, 39.05736], [-84.51531, 39.05037], [-84.53515, 39.03667], [-84.55525, 39.02325], [-84.58542, 39.00311], [-84.58542, 39.00311], [-84.62509, 38.97572], [-84.63487, 38.96873], [-84.65419, 38.9545], [-84.67322, 38.93999], [-84.69199, 38.92522], [-84.71102, 38.91072], [-84.74011, 38.8895], [-84.74989, 38.88252], [-84.76974, 38.86883], [-84.78984, 38.8554], [-84.82001, 38.83525], [-84.82001, 38.83525], [-84.85017, 38.81511], [-84.87029, 38.80169], [-84.88033, 38.79497], [-84.91049, 38.77483], [-84.9306, 38.7614], [-84.95071, 38.74797], [-84.97081, 38.73454], [-84.98087, 38.72783], [-85.01103, 38.70769], [-85.04106, 38.68741], [-85.06076, 38.67358], [-85.07054, 38.6666], [-85.09937, 38.64511], [-85.10889, 38.63786], [-85.12766, 38.62309], [-85.14668, 38.60859], [-85.16599, 38.59436], [-85.18556, 38.58039], [-85.21545, 38.55998], [-85.22551, 38.55327], [-85.24562, 38.53984], [-85.26573, 38.52641], [-85.29589, 38.50627], [-85.30594, 38.49956], [-85.32605, 38.48613], [-85.34616, 38.4727], [-85.36626, 38.45927], [-85.39642, 38.43913], [-85.41653, 38.4257], [-85.42659, 38.41898], [-85.44669, 38.40556], [-85.4668, 38.39213], [-85.48691, 38.3787], [-85.51707, 38.35856], [-85.52712, 38.35184], [-85.54723, 38.33842], [-85.56734, 38.32499], [-85.58745, 38.31156], [-85.60756, 38.29813], [-85.63772, 38.27799], [-85.65783, 38.26456], [-85.66788, 38.25785], [-85.6778, 38.251], [-85.71695, 38.22307], [-85.72659, 38.21595], [-85.74563, 38.20145], [-85.7644, 38.18668], [-85.77392, 38.17943], [-85.81252, 38.15096], [-85.82231, 38.14398], [-85.84215, 38.13029], [-85.86226, 38.11686], [-85.89242, 38.09671], [-85.90247, 38.09], [-85.92258, 38.07657], [-85.94268, 38.06314], [-85.96278, 38.04971], [-85.97284, 38.043], [-86.00301, 38.02286], [-86.03264, 38.00218], [-86.04242, 37.9952], [-86.06172, 37.98096], [-86.09013, 37.95908], [-86.09952, 37.95169], [-86.11856, 37.93719], [-86.14764, 37.91597], [-86.16735, 37.90214], [-86.17728, 37.89529], [-86.19739, 37.88187], [-86.21749, 37.86844], [-86.23759, 37.85501], [-86.25743, 37.84132], [-86.28666, 37.82024], [-86.29631, 37.81312], [-86.31535, 37.79861], [-86.33411, 37.78384], [-86.35315, 37.76934], [-86.38211, 37.74799], [-86.39175, 37.74087], [-86.41106, 37.72663], [-86.43009, 37.71214], [-86.44859, 37.69709], [-86.46655, 37.68152], [-86.4935, 37.65816], [-86.50249, 37.65037], [-86.52098, 37.63533], [-86.54002, 37.62083], [-86.56897, 37.59947], [-86.58813, 37.58511], [-86.59765, 37.57786], [-86.61616, 37.56282], [-86.63411, 37.54724], [-86.65208, 37.53167], [-86.67004, 37.51609], [-86.68855, 37.50105], [-86.70757, 37.48655], [-86.72688, 37.47231], [-86.74619, 37.45808], [-86.76522, 37.44357], [-86.79257, 37.42061], [-86.80141, 37.41269], [-86.82742, 37.38839], [-86.836, 37.3802], [-86.86227, 37.35616], [-86.87112, 37.34824], [-86.88962, 37.3332], [-86.90865, 37.31869], [-86.92796, 37.30446], [-86.94727, 37.29023], [-86.97556, 37.2682], [-86.9848, 37.26068], [-87.00249, 37.24484], [-87.02837, 37.2204], [-87.03681, 37.21207], [-87.0537, 37.19543], [-87.07032, 37.1785], [-87.08721, 37.16186], [-87.10384, 37.14494], [-87.12903, 37.11983], [-87.14579, 37.10304], [-87.15424, 37.09472], [-87.17085, 37.0778], [-87.19606, 37.05269], [-87.20438, 37.04423], [-87.22126, 37.02757], [-87.23788, 37.01065], [-87.25478, 36.994], [-87.27984, 36.96876], [-87.28828, 36.96043], [-87.30492, 36.94351], [-87.32179, 36.92686], [-87.33842, 36.90994], [-87.3553, 36.89329], [-87.37193, 36.87637], [-87.38882, 36.85972], [-87.40544, 36.8428], [-87.42207, 36.82589], [-87.43816, 36.80843], [-87.46149, 36.78144], [-87.47623, 36.76264], [-87.48347, 36.75311], [-87.49767, 36.73377], [-87.51189, 36.71443], [-87.53387, 36.6861], [-87.54929, 36.66797], [-87.55721, 36.65911], [-87.57329, 36.64165], [-87.58964, 36.62447], [-87.61363, 36.59814], [-87.62154, 36.58928], [-87.63655, 36.57075], [-87.65104, 36.55169], [-87.66525, 36.53235], [-87.67945, 36.51301], [-87.70143, 36.48468], [-87.71672, 36.46642], [-87.72449, 36.45742], [-87.74004, 36.43943], [-87.75559, 36.42144], [-87.77785, 36.39337], [-87.79218, 36.37417], [-87.80639, 36.35484], [-87.8206, 36.33549], [-87.82771, 36.32583], [-87.84219, 36.30676], [-87.86417, 36.27842], [-87.87851, 36.25922], [-87.88561, 36.24955], [-87.9064, 36.22001], [-87.91994, 36.2], [-87.92664, 36.18993], [-87.94005, 36.16979], [-87.96014, 36.13958], [-87.96685, 36.12951], [-87.98695, 36.0993], [-87.99366, 36.08923], [-88.00706, 36.06908], [-88.02048, 36.04894], [-88.04057, 36.01873], [-88.05399, 35.99858], [-88.06069, 35.98851], [-88.08026, 35.95776], [-88.093, 35.93695], [-88.0993, 35.92648], [-88.11766, 35.89452], [-88.12987, 35.87317], [-88.14233, 35.85208], [-88.15506, 35.83127], [-88.16792, 35.81059], [-88.1808, 35.78992], [-88.19353, 35.7691], [-88.19984, 35.75863], [-88.21767, 35.72614], [-88.22343, 35.71512], [-88.24059, 35.68195], [-88.24622, 35.67081], [-88.26284, 35.63711], [-88.2741, 35.61481], [-88.28522, 35.59239], [-88.29636, 35.56996], [-88.30762, 35.54767], [-88.31325, 35.53652], [-88.32986, 35.50282], [-88.34113, 35.48053], [-88.34676, 35.46938], [-88.35774, 35.44683], [-88.37463, 35.41339], [-88.38576, 35.39097], [-88.39126, 35.37969], [-88.40815, 35.34625], [-88.41914, 35.32369], [-88.42987, 35.30087], [-88.44046, 35.2779], [-88.45051, 35.2544], [-88.46002, 35.23037], [-88.46954, 35.20633], [-88.47906, 35.18229], [-88.48845, 35.15812], [-88.49313, 35.14604], [-88.50803, 35.11059], [-88.51298, 35.09877], [-88.52692, 35.06239], [-88.53148, 35.05016], [-88.54488, 35.01324], [-88.55333, 34.98813], [-88.56165, 34.96288], [-88.57009, 34.93777], [-88.57854, 34.91267], [-88.58684, 34.88741], [-88.59515, 34.86217], [-88.60346, 34.83693], [-88.61151, 34.81141], [-88.61539, 34.79852], [-88.62652, 34.75932], [-88.63362, 34.73286], [-88.64046, 34.70614], [-88.64717, 34.67928], [-88.65387, 34.65243], [-88.66057, 34.62557], [-88.66727, 34.59872], [-88.67397, 34.57186], [-88.68054, 34.54487], [-88.68671, 34.51747], [-88.69234, 34.48954], [-88.69501, 34.47544], [-88.70199, 34.43207], [-88.70628, 34.4028], [-88.71083, 34.37379], [-88.71325, 34.35943], [-88.72089, 34.31673], [-88.72343, 34.30249], [-88.7304, 34.25912], [-88.73429, 34.22945], [-88.73765, 34.19923], [-88.741, 34.16901], [-88.74489, 34.13934], [-88.74944, 34.11034], [-88.75439, 34.08173], [-88.75935, 34.05313], [-88.76378, 34.02399], [-88.76714, 33.99378], [-88.76928, 33.96236], [-88.77048, 33.93], [-88.77089, 33.8971], [-88.77049, 33.8642], [-88.76929, 33.83184], [-88.76714, 33.80042], [-88.76513, 33.78564], [-88.75935, 33.74107], [-88.75439, 33.71246], [-88.74944, 33.68386], [-88.74489, 33.65486], [-88.741, 33.62518], [-88.73764, 33.59497], [-88.73428, 33.56476], [-88.73041, 33.53508], [-88.728, 33.52071], [-88.72075, 33.47761], [-88.71526, 33.44954], [-88.71245, 33.43558], [-88.70413, 33.39355], [-88.6985, 33.36562], [-88.69529, 33.35206], [-88.68564, 33.31137], [-88.67839, 33.28505], [-88.67062, 33.25927], [-88.66673, 33.24638], [-88.65508, 33.2077], [-88.64771, 33.18152], [-88.64047, 33.1552], [-88.63671, 33.14217], [-88.62531, 33.10323], [-88.62103, 33.09074], [-88.60802, 33.05341], [-88.5985, 33.02938], [-88.58898, 33.00534], [-88.58443, 32.99313], [-88.57062, 32.9566], [-88.56177, 32.93189], [-88.55762, 32.91927], [-88.54904, 32.89429], [-88.53603, 32.85697], [-88.52692, 32.83253], [-88.51767, 32.80822], [-88.50801, 32.78432], [-88.4981, 32.76069], [-88.48845, 32.73679], [-88.47906, 32.71261], [-88.46954, 32.68858], [-88.46002, 32.66454], [-88.45065, 32.64037], [-88.44099, 32.61647], [-88.43603, 32.60465], [-88.42142, 32.56893], [-88.41203, 32.54476], [-88.40251, 32.52073], [-88.393, 32.49669], [-88.38362, 32.47252], [-88.37866, 32.4607], [-88.36404, 32.42499], [-88.35439, 32.40108], [-88.34515, 32.37678], [-88.33603, 32.35234], [-88.32718, 32.32763], [-88.31874, 32.30252], [-88.31042, 32.27728], [-88.30212, 32.25203], [-88.29407, 32.22652], [-88.29031, 32.21349], [-88.27906, 32.17442], [-88.27196, 32.14797], [-88.26512, 32.12125], [-88.26176, 32.10782], [-88.25171, 32.06754], [-88.24501, 32.04068], [-88.23831, 32.01382], [-88.23161, 31.98697], [-88.22504, 31.95998], [-88.21873, 31.93271], [-88.21271, 31.90519], [-88.20694, 31.87739], [-88.20145, 31.84933], [-88.19595, 31.82126], [-88.19018, 31.79346], [-88.18415, 31.76594], [-88.17786, 31.73868], [-88.17128, 31.71169], [-88.16458, 31.68483], [-88.15788, 31.65798], [-88.15117, 31.63112], [-88.14447, 31.60427], [-88.13777, 31.57741], [-88.13107, 31.55056], [-88.12437, 31.5237], [-88.11766, 31.49684], [-88.11096, 31.46999], [-88.10426, 31.44313], [-88.09756, 31.41628], [-88.09099, 31.38929], [-88.08469, 31.36203], [-88.07866, 31.3345], [-88.07289, 31.3067], [-88.0674, 31.27864], [-88.06189, 31.25057], [-88.05894, 31.23674], [-88.05009, 31.19525], [-88.04379, 31.16799], [-88.03723, 31.141], [-88.03053, 31.11414], [-88.02382, 31.08728], [-88.02048, 31.07386], [-88.01042, 31.03357], [-88.00372, 31.00672], [-87.99702, 30.97986], [-87.99045, 30.95287], [-87.98415, 30.92561], [-87.97812, 30.89808], [-87.97235, 30.87029], [-87.96685, 30.84222], [-87.96136, 30.81416], [-87.95572, 30.78623], [-87.95023, 30.75817], [-87.94501, 30.72984], [-87.94004, 30.70123], [-87.93549, 30.67223], [-87.93119, 30.64296], [-87.92663, 30.61395], [-87.92168, 30.58535], [-87.91658, 30.55688], [-87.91148, 30.52841], [-87.90652, 30.49981], [-87.90197, 30.47081], [-87.89767, 30.44153], [-87.89311, 30.41253], [-87.88815, 30.38392], [-87.88307, 30.35546], [-87.87811, 30.32685], [-87.87369, 30.29772], [-87.87033, 30.26751], [-87.86819, 30.23608], [-87.86699, 30.20372], [-87.86646, 30.17069], [-87.86632, 30.13726], [-87.86618, 30.10382], [-87.86565, 30.07079], [-87.86444, 30.03843], [-87.8623, 30.007], [-87.85894, 29.97679], [-87.85452, 29.94765], [-87.84956, 29.91905], [-87.8446, 29.89045], [-87.84018, 29.86131], [-87.83682, 29.83109], [-87.83467, 29.79967], [-87.83347, 29.76731], [-87.83294, 29.73428], [-87.83281, 29.70084], [-87.83281, 29.66727], [-87.83281, 29.6337], [-87.83281, 29.60013], [-87.83281, 29.56656], [-87.83281, 29.53299], [-87.83281, 29.49942], [-87.83281, 29.46585], [-87.83281, 29.43228], [-87.83281, 29.39871], [-87.83281, 29.36514], [-87.83281, 29.33157], [-87.83281, 29.298], [-87.83294, 29.26457], [-87.83347, 29.23154], [-87.83469, 29.19917], [-87.83684, 29.16775], [-87.84018, 29.13754], [-87.8446, 29.1084], [-87.84956, 29.0798], [-87.85452, 29.0512], [-87.85893, 29.02206], [-87.86229, 28.99184], [-87.86444, 28.96042], [-87.86565, 28.92806], [-87.86618, 28.89503], [-87.86632, 28.86159], [-87.86632, 28.82802], [-87.86646, 28.79459], [-87.86699, 28.76155], [-87.86819, 28.72919], [-87.87035, 28.69777], [-87.87369, 28.66756], [-87.87811, 28.63842], [-87.88307, 28.60982], [-87.88802, 28.58122], [-87.89244, 28.55208], [-87.8958, 28.52187], [-87.89795, 28.49044], [-87.89915, 28.45808], [-87.89983, 28.42518], [-87.9005, 28.39228], [-87.9017, 28.35992], [-87.90385, 28.3285], [-87.9072, 28.29828], [-87.91162, 28.26915], [-87.91659, 28.24054], [-87.92154, 28.21194], [-87.92596, 28.1828], [-87.92932, 28.15259], [-87.93159, 28.1213], [-87.93333, 28.08948], [-87.93507, 28.05765], [-87.93736, 28.02637], [-87.94072, 27.99615], [-87.94514, 27.96702], [-87.9501, 27.93842], [-87.95506, 27.90981], [-87.95948, 27.88068], [-87.96297, 27.8506], [-87.96565, 27.81971], [-87.96806, 27.78856], [-87.97075, 27.75768], [-87.97423, 27.72759], [-87.97865, 27.69846], [-87.98361, 27.66985], [-87.98857, 27.64125], [-87.99313, 27.61225], [-87.99702, 27.58257], [-88.00037, 27.55236], [-88.00372, 27.52214], [-88.00761, 27.49247], [-88.01216, 27.46346], [-88.01712, 27.43486], [-88.02222, 27.40639], [-88.02718, 27.3778], [-88.03174, 27.34879], [-88.03603, 27.31952], [-88.04058, 27.29052], [-88.04299, 27.27615], [-88.05077, 27.23358], [-88.05627, 27.20551], [-88.0619, 27.17759], [-88.0674, 27.14952], [-88.07289, 27.12146], [-88.07866, 27.09366], [-88.08469, 27.06613], [-88.09099, 27.03887], [-88.09755, 27.01188], [-88.10439, 26.98516], [-88.1115, 26.95871], [-88.11887, 26.93252], [-88.12651, 26.9066], [-88.13441, 26.88096], [-88.14233, 26.85531], [-88.14996, 26.82939], [-88.15733, 26.80321], [-88.16444, 26.77676], [-88.17142, 26.75017], [-88.17852, 26.72371], [-88.1859, 26.69753], [-88.19366, 26.67175], [-88.19769, 26.65899], [-88.21109, 26.62206], [-88.22034, 26.59776], [-88.23, 26.57386], [-88.23496, 26.56204], [-88.24957, 26.52633], [-88.25895, 26.50216], [-88.26364, 26.49007], [-88.27798, 26.45408], [-88.28737, 26.42991], [-88.29703, 26.40601], [-88.30695, 26.38238], [-88.3119, 26.37056], [-88.32129, 26.34639], [-88.33067, 26.32222], [-88.34501, 26.28623], [-88.3497, 26.27415], [-88.36459, 26.2387], [-88.37518, 26.21573], [-88.38577, 26.19277], [-88.39636, 26.16981], [-88.40694, 26.14685], [-88.41699, 26.12335], [-88.42651, 26.09931], [-88.43121, 26.08722], [-88.44086, 26.06332], [-88.45024, 26.03915], [-88.45989, 26.01525], [-88.47035, 25.99216], [-88.4863, 25.95778], [-88.49153, 25.94623], [-88.50225, 25.92341], [-88.51753, 25.88836], [-88.52705, 25.86432], [-88.53658, 25.84029], [-88.5414, 25.82834], [-88.55562, 25.79221], [-88.56044, 25.78026], [-88.57088, 25.75717], [-88.58684, 25.72279], [-88.59207, 25.71125], [-88.60802, 25.67687], [-88.61325, 25.66532], [-88.62291, 25.64142], [-88.63657, 25.60476], [-88.64113, 25.59254], [-88.65387, 25.55494], [-88.66219, 25.5297], [-88.67035, 25.50459], [-88.67772, 25.47948], [-88.68362, 25.45423], [-88.68764, 25.42899], [-88.68912, 25.40388], [-88.68764, 25.37877], [-88.68349, 25.35365], [-88.67706, 25.32895], [-88.66847, 25.30505], [-88.65802, 25.28222], [-88.63925, 25.25066], [-88.62424, 25.23213], [-88.60709, 25.21575], [-88.58805, 25.20124], [-88.55641, 25.18258], [-88.54555, 25.17681], [-88.52277, 25.1666], [-88.49997, 25.15734], [-88.47786, 25.14888], [-88.44542, 25.13908], [-88.42503, 25.13505], [-88.40507, 25.13357]]]}}