{"type": "FeatureCollection", "features": [{"type": "Feature", "geometry": {"type": "Point", "coordinates": [-88.4, 25.4]}, "properties": {"FLDATELBL": "2026-10-08 7:00 PM Thu CDT", "DATELBL": "10:00 PM Thu", "TAU": 0, "STORMTYPE": "HU", "MAXWIND": 90, "GUST": 110, "MSLP": 969, "LAT": 25, "LON": -88}}, {"type": "Feature", "geometry": {"type": "Point", "coordinates": [-87.6, 27.1]}, "properties": {"FLDATELBL": "2026-10-09 7:00 AM Fri CDT", "DATELBL": "7:00 AM Fri", "TAU": 12, "STORMTYPE": "MH", "MAXWIND": 100, "GUST": 120, "MSLP": 9999, "LAT": 27, "LON": -87}}, {"type": "Feature", "geometry": {"type": "Point", "coordinates": [-87.1, 29.9]}, "properties": {"FLDATELBL": "2026-10-09 7:00 PM Fri CDT", "DATELBL": "7:00 PM Fri", "TAU": 24, "STORMTYPE": "HU", "MAXWIND": 85, "GUST": 105, "MSLP": 9999, "LAT": 29, "LON": -87}}, {"type": "Feature", "geometry": {"type": "Point", "coordinates": [-87.3, 32.2]}, "properties": {"FLDATELBL": "2026-10-10 7:00 AM Sat CDT", "DATELBL": "7:00 AM Sat", "TAU": 36, "STORMTYPE": "TS", "MAXWIND": 45, "GUST": 55, "MSLP": 9999, "LAT": 32, "LON": -87}}, {"type": "Feature", "geometry": {"type": "Point", "coordinates": [-87.5, 34.1]}, "properties": {"FLDATELBL": "2026-10-10 7:00 PM Sat CDT", "DATELBL": "7:00 PM Sat", "TAU": 48, "STORMTYPE": "STD", "MAXWIND": 30, "GUST": 40, "MSLP": 9999, "LAT": 34, "LON": -87}}, {"type": "Feature", "geometry": {"type": "Point", "coordinates": [-86.1, 36.1]}, "properties": {"FLDATELBL": "2026-10-11 7:00 AM Sun CDT", "DATELBL": "7:00 AM Sun", "TAU": 60, "STORMTYPE": "STD", "MAXWIND": 20, "GUST": 30, "MSLP": 9999, "LAT": 36, "LON": -86}}, {"type": "Feature", "geometry": {"type": "Point", "coordinates": [-83.0, 38.0]}, "properties": {"FLDATELBL": "2026-10-11 7:00 PM Sun CDT", "DATELBL": "7:00 PM Sun", "TAU": 72, "STORMTYPE": "STD", "MAXWIND": 20, "GUST": 30, "MSLP": 9999, "LAT": 38, "LON": -83}}]}