{"type": "FeatureCollection", "features": [{"type": "Feature", "geometry": {"type": "LineString", "coordinates": [[-89.98, 29.46], [-89.56, 29.66], [-89.6, 30.15], [-89.33, 30.31], [-88.82, 30.4]]}, "properties": {"TCWW": "TWR"}}, {"type": "Feature", "geometry": {"type": "LineString", "coordinates": [[-85.39, 29.93], [-85.22, 29.68], [-84.38, 29.96], [-84.08, 30.1], [-83.99, 30.09]]}, "properties": {"TCWW": "TWR"}}, {"type": "Feature", "geometry": {"type": "LineString", "coordinates": [[-88.82, 30.4], [-88.4, 30.4], [-87.55, 30.27], [-86.8, 30.39], [-86.4, 30.38], [-85.98, 30.28], [-85.39, 29.93]]}, "properties": {"TCWW": "HWR"}}]}